{
  "type": "FeatureCollection",
  "features": [
    {
      "type": "Feature",
      "properties": {
        "norad_id": 38250,
        "name": "BEIDOU-2 M3 (C11)",
        "group": "beidou",
        "lat": -26.76699879788309,
        "lon": 150.98858567628807,
        "alt_km": 21499.166503627974,
        "timestamp": "2025-12-15T20:48:54.148563+00:00",
        "meta_object_name": "BEIDOU-2 M3 (C11)",
        "meta_object_id": "2012-018A",
        "meta_epoch": "2025-12-13T22:30:51.861600",
        "meta_mean_motion": 1.86229879,
        "meta_eccentricity": 0.00242907,
        "meta_inclination": 55.9188,
        "meta_ra_of_asc_node": 311.1166,
        "meta_arg_of_pericenter": 274.3199,
        "meta_mean_anomaly": 85.3911,
        "meta_ephemeris_type": 0,
        "meta_classification_type": "U",
        "meta_norad_cat_id": 38250,
        "meta_element_set_no": 999,
        "meta_rev_at_epoch": 9249,
        "meta_bstar": 0,
        "meta_mean_motion_dot": -9.6e-07,
        "meta_mean_motion_ddot": 0,
        "tle_line1": "1 38250U 12018A   25347.93810025 -.00000096  00000+0  00000+0 0  9993",
        "tle_line2": "2 38250  55.9188 311.1166 0024290 274.3199  85.3911  1.86229879 92490"
      },
      "geometry": {
        "type": "Point",
        "coordinates": [
          150.98858567628807,
          -26.76699879788309
        ]
      }
    },
    {
      "type": "Feature",
      "properties": {
        "norad_id": 38251,
        "name": "BEIDOU-2 M4 (C12)",
        "group": "beidou",
        "lat": -54.23243680797432,
        "lon": -159.21365807056503,
        "alt_km": 21493.166960459883,
        "timestamp": "2025-12-15T20:48:54.148575+00:00",
        "meta_object_name": "BEIDOU-2 M4 (C12)",
        "meta_object_id": "2012-018B",
        "meta_epoch": "2025-12-13T07:59:48.422112",
        "meta_mean_motion": 1.86229462,
        "meta_eccentricity": 0.00154528,
        "meta_inclination": 55.8208,
        "meta_ra_of_asc_node": 310.3658,
        "meta_arg_of_pericenter": 277.4494,
        "meta_mean_anomaly": 82.3644,
        "meta_ephemeris_type": 0,
        "meta_classification_type": "U",
        "meta_norad_cat_id": 38251,
        "meta_element_set_no": 999,
        "meta_rev_at_epoch": 9248,
        "meta_bstar": 0,
        "meta_mean_motion_dot": -9.5e-07,
        "meta_mean_motion_ddot": 0,
        "tle_line1": "1 38251U 12018B   25347.33319933 -.00000095  00000+0  00000+0 0  9999",
        "tle_line2": "2 38251  55.8208 310.3658 0015452 277.4494  82.3644  1.86229462 92489"
      },
      "geometry": {
        "type": "Point",
        "coordinates": [
          -159.21365807056503,
          -54.23243680797432
        ]
      }
    },
    {
      "type": "Feature",
      "properties": {
        "norad_id": 38775,
        "name": "BEIDOU-2 M6 (C14)",
        "group": "beidou",
        "lat": 56.29119298172019,
        "lon": 164.2393869035665,
        "alt_km": 21531.6926569691,
        "timestamp": "2025-12-15T20:48:54.148586+00:00",
        "meta_object_name": "BEIDOU-2 M6 (C14)",
        "meta_object_id": "2012-050B",
        "meta_epoch": "2025-12-14T02:49:55.180128",
        "meta_mean_motion": 1.86230875,
        "meta_eccentricity": 0.0011244,
        "meta_inclination": 56.3796,
        "meta_ra_of_asc_node": 69.0216,
        "meta_arg_of_pericenter": 344.0149,
        "meta_mean_anomaly": 15.9678,
        "meta_ephemeris_type": 0,
        "meta_classification_type": "U",
        "meta_norad_cat_id": 38775,
        "meta_element_set_no": 999,
        "meta_rev_at_epoch": 8986,
        "meta_bstar": 0,
        "meta_mean_motion_dot": -8.2e-07,
        "meta_mean_motion_ddot": 0,
        "tle_line1": "1 38775U 12050B   25348.11799977 -.00000082  00000+0  00000+0 0  9999",
        "tle_line2": "2 38775  56.3796  69.0216 0011244 344.0149  15.9678  1.86230875 89866"
      },
      "geometry": {
        "type": "Point",
        "coordinates": [
          164.2393869035665,
          56.29119298172019
        ]
      }
    },
    {
      "type": "Feature",
      "properties": {
        "norad_id": 38953,
        "name": "BEIDOU-2 G6 (C02)",
        "group": "beidou",
        "lat": 2.84132902590723,
        "lon": 120.98505850114621,
        "alt_km": 35800.429309120875,
        "timestamp": "2025-12-15T20:48:54.148598+00:00",
        "meta_object_name": "BEIDOU-2 G6 (C02)",
        "meta_object_id": "2012-059A",
        "meta_epoch": "2025-12-14T20:39:57.055392",
        "meta_mean_motion": 1.00269597,
        "meta_eccentricity": 0.00079583,
        "meta_inclination": 3.9549,
        "meta_ra_of_asc_node": 75.4859,
        "meta_arg_of_pericenter": 290.4887,
        "meta_mean_anomaly": 111.7816,
        "meta_ephemeris_type": 0,
        "meta_classification_type": "U",
        "meta_norad_cat_id": 38953,
        "meta_element_set_no": 999,
        "meta_rev_at_epoch": 4806,
        "meta_bstar": 0,
        "meta_mean_motion_dot": -1.57e-06,
        "meta_mean_motion_ddot": 0,
        "tle_line1": "1 38953U 12059A   25348.86107703 -.00000157  00000+0  00000+0 0  9991",
        "tle_line2": "2 38953   3.9549  75.4859 0007958 290.4887 111.7816  1.00269597 48067"
      },
      "geometry": {
        "type": "Point",
        "coordinates": [
          120.98505850114621,
          2.84132902590723
        ]
      }
    },
    {
      "type": "Feature",
      "properties": {
        "norad_id": 40549,
        "name": "BEIDOU-3S IGSO-1S (C31)",
        "group": "beidou",
        "lat": -10.314449906262652,
        "lon": 126.55182138132173,
        "alt_km": 35626.86347349673,
        "timestamp": "2025-12-15T20:48:54.148610+00:00",
        "meta_object_name": "BEIDOU-3S IGSO-1S (C31)",
        "meta_object_id": "2015-019A",
        "meta_epoch": "2025-12-11T20:45:03.352032",
        "meta_mean_motion": 1.00292963,
        "meta_eccentricity": 0.0036964,
        "meta_inclination": 49.5542,
        "meta_ra_of_asc_node": 297.7211,
        "meta_arg_of_pericenter": 195.3449,
        "meta_mean_anomaly": 352.9961,
        "meta_ephemeris_type": 0,
        "meta_classification_type": "U",
        "meta_norad_cat_id": 40549,
        "meta_element_set_no": 999,
        "meta_rev_at_epoch": 3919,
        "meta_bstar": 0,
        "meta_mean_motion_dot": -1.91e-06,
        "meta_mean_motion_ddot": 0,
        "tle_line1": "1 40549U 15019A   25345.86462213 -.00000191  00000+0  00000+0 0  9999",
        "tle_line2": "2 40549  49.5542 297.7211 0036964 195.3449 352.9961  1.00292963 39194"
      },
      "geometry": {
        "type": "Point",
        "coordinates": [
          126.55182138132173,
          -10.314449906262652
        ]
      }
    },
    {
      "type": "Feature",
      "properties": {
        "norad_id": 40748,
        "name": "BEIDOU-3S M2S (C58)",
        "group": "beidou",
        "lat": 44.44651681622718,
        "lon": 85.03049235816731,
        "alt_km": 21551.71294344178,
        "timestamp": "2025-12-15T20:48:54.148622+00:00",
        "meta_object_name": "BEIDOU-3S M2S (C58)",
        "meta_object_id": "2015-037A",
        "meta_epoch": "2025-12-11T22:15:26.437248",
        "meta_mean_motion": 1.8622897,
        "meta_eccentricity": 0.00123447,
        "meta_inclination": 55.0397,
        "meta_ra_of_asc_node": 308.4912,
        "meta_arg_of_pericenter": 267.8245,
        "meta_mean_anomaly": 92.025,
        "meta_ephemeris_type": 0,
        "meta_classification_type": "U",
        "meta_norad_cat_id": 40748,
        "meta_element_set_no": 999,
        "meta_rev_at_epoch": 7063,
        "meta_bstar": 0,
        "meta_mean_motion_dot": -8.9e-07,
        "meta_mean_motion_ddot": 0,
        "tle_line1": "1 40748U 15037A   25345.92738932 -.00000089  00000+0  00000+0 0  9997",
        "tle_line2": "2 40748  55.0397 308.4912 0012344 267.8245  92.0250  1.86228970 70636"
      },
      "geometry": {
        "type": "Point",
        "coordinates": [
          85.03049235816731,
          44.44651681622718
        ]
      }
    },
    {
      "type": "Feature",
      "properties": {
        "norad_id": 40749,
        "name": "BEIDOU-3S M1S (C57)",
        "group": "beidou",
        "lat": -26.18524418674574,
        "lon": -71.78996356003648,
        "alt_km": 21520.939369894186,
        "timestamp": "2025-12-15T20:48:54.148633+00:00",
        "meta_object_name": "BEIDOU-3S M1S (C57)",
        "meta_object_id": "2015-037B",
        "meta_epoch": "2025-12-11T14:53:54.000096",
        "meta_mean_motion": 1.86253918,
        "meta_eccentricity": 0.00034406,
        "meta_inclination": 55.0364,
        "meta_ra_of_asc_node": 308.4915,
        "meta_arg_of_pericenter": 358.1692,
        "meta_mean_anomaly": 1.8205,
        "meta_ephemeris_type": 0,
        "meta_classification_type": "U",
        "meta_norad_cat_id": 40749,
        "meta_element_set_no": 999,
        "meta_rev_at_epoch": 7063,
        "meta_bstar": 0,
        "meta_mean_motion_dot": -8.8e-07,
        "meta_mean_motion_ddot": 0,
        "tle_line1": "1 40749U 15037B   25345.62076389 -.00000088  00000+0  00000+0 0  9995",
        "tle_line2": "2 40749  55.0364 308.4915 0003440 358.1692   1.8205  1.86253918 70639"
      },
      "geometry": {
        "type": "Point",
        "coordinates": [
          -71.78996356003648,
          -26.18524418674574
        ]
      }
    }
  ]
}